H0,DIST_H0,H_DIST_MIN,PT_DIST_MIN,DIST_MIN,HF,N_PT,DIST_HF,RCS,CCSDS_OMM_VERS,COMMENT,CREATION_DATE,ORIGINATOR,OBJECT_NAME,OBJECT_ID,CENTER_NAME,REF_FRAME,TIME_SYSTEM,MEAN_ELEMENT_THEORY,EPOCH,MEAN_MOTION,ECCENTRICITY,INCLINATION,RA_OF_ASC_NODE,ARG_OF_PERICENTER,MEAN_ANOMALY,EPHEMERIS_TYPE,CLASSIFICATION_TYPE,NORAD_CAT_ID,ELEMENT_SET_NO,REV_AT_EPOCH,BSTAR,MEAN_MOTION_DOT,MEAN_MOTION_DDOT,SEMIMAJOR_AXIS,PERIOD,APOAPSIS,PERIAPSIS,OBJECT_TYPE,RCS_SIZE,COUNTRY_CODE,LAUNCH_DATE,SITE,DECAY_DATE,FILE,GP_ID,TLE_LINE0,TLE_LINE1,TLE_LINE2
2022-08-06T12:32:44.000,1095452.6976648383,12:34:29.000,106,798402.4796996705,12:36:15.000,211,1097959.625483552,3.313,2.0,GENERATED VIA SPACE-TRACK.ORG API,2022-08-06T18:07:45,18 SPCS,SL-14 R/B,1986-034B,EARTH,TEME,UTC,SGP4,2022-08-06T07:11:39.899904,14.83591327,0.0020914,82.5545,292.1199,35.2166,33.6178,0,U,16720,999,93630,1.4164e-05,1.41e-06,0.0,6996.148,97.062,632.645,603.381,ROCKET BODY,LARGE,CIS,1986-05-15,PKMTR,,3530579,209676155,0 SL-14 R/B,1 16720U 86034B   22218.29976736  .00000141  00000-0  14164-4 0  9997,2 16720  82.5545 292.1199 0020914  35.2166  33.6178 14.83591327936301
2022-08-06T11:00:00.000,835755.2411301527,11:00:00.000,0,835755.2411301527,11:01:12.000,72,1096249.0453105208,4.4461,2.0,GENERATED VIA SPACE-TRACK.ORG API,2022-08-06T18:07:45,18 SPCS,SL-14 R/B,1987-038B,EARTH,TEME,UTC,SGP4,2022-08-06T14:15:25.425792,14.83237242,0.002044,82.5006,89.5347,166.482,193.6947,0,U,17912,999,88475,1.6304e-05,1.58e-06,0.0,6997.261,97.085,633.429,604.824,ROCKET BODY,LARGE,CIS,1987-04-27,PKMTR,,3530579,209678190,0 SL-14 R/B,1 17912U 87038B   22218.59404428  .00000158  00000-0  16304-4 0  9999,2 17912  82.5006  89.5347 0020440 166.4820 193.6947 14.83237242884753
2022-08-06T15:13:30.000,1099580.027885451,15:15:24.000,115,740281.9731187265,15:17:18.000,228,1099190.2440841869,4.0192,2.0,GENERATED VIA SPACE-TRACK.ORG API,2022-08-06T18:07:45,18 SPCS,SL-14 R/B,1987-062B,EARTH,TEME,UTC,SGP4,2022-08-06T09:52:42.257280,14.83429788,0.0021812,82.5149,324.8942,64.8353,4.9714,0,U,18215,999,87299,1.6427e-05,1.6e-06,0.0,6996.656,97.072,633.782,603.26,ROCKET BODY,LARGE,CIS,1987-07-16,PKMTR,,3530579,209677692,0 SL-14 R/B,1 18215U 87062B   22218.41160020  .00000160  00000-0  16427-4 0  9990,2 18215  82.5149 324.8942 0021812  64.8353   4.9714 14.83429788872997
2022-08-06T14:09:45.000,1097792.9765174275,14:11:18.000,94,872514.438667618,14:12:52.000,187,1098841.6447915165,3.872,2.0,GENERATED VIA SPACE-TRACK.ORG API,2022-08-06T18:07:45,18 SPCS,SL-14 R/B,1988-020B,EARTH,TEME,UTC,SGP4,2022-08-06T13:21:24.189408,14.83631228,0.0018243,82.5398,317.2749,70.3559,289.9623,0,U,18959,999,83767,1.7735e-05,1.71e-06,0.0,6996.022,97.059,630.65,605.125,ROCKET BODY,LARGE,CIS,1988-03-15,PKMTR,,3530579,209678224,0 SL-14 R/B,1 18959U 88020B   22218.55652997  .00000171  00000-0  17735-4 0  9999,2 18959  82.5398 317.2749 0018243  70.3559 289.9623 14.83631228837677
2022-08-06T13:15:37.000,1096910.1968660646,13:18:00.000,144,430138.2924152418,13:20:23.000,286,1095338.695058761,9.3651,2.0,GENERATED VIA SPACE-TRACK.ORG API,2022-08-06T18:07:45,18 SPCS,DELTA 2 R/B(1),1989-085B,EARTH,TEME,UTC,SGP4,2022-08-06T05:33:00.900288,15.3629892,0.0079627,35.6379,131.198,299.7731,59.5097,0,U,20303,999,78811,0.00020129,8.084e-05,0.0,6835.202,93.732,511.494,402.64,ROCKET BODY,LARGE,US,1989-10-21,AFETR,,3530579,209679019,0 DELTA 2 R/B(1),1 20303U 89085B   22218.23126042  .00008084  00000-0  20129-3 0  9990,2 20303  35.6379 131.1980 0079627 299.7731  59.5097 15.36298920788110
2022-08-06T18:02:23.000,1094744.8088945858,18:04:32.000,130,647413.8809188481,18:06:41.000,258,1099701.830262837,28.0799,2.0,GENERATED VIA SPACE-TRACK.ORG API,2022-08-06T18:07:45,18 SPCS,HST,1990-037B,EARTH,TEME,UTC,SGP4,2022-08-06T05:27:50.040000,15.10729017,0.0002499,28.4686,198.9496,206.8115,163.0292,0,U,20580,999,57375,5.5184e-05,1.122e-05,0.0,6912.112,95.318,535.705,532.25,PAYLOAD,LARGE,US,1990-04-24,AFETR,,3530579,209677279,0 HST,1 20580U 90037B   22218.22766250  .00001122  00000-0  55184-4 0  9992,2 20580  28.4686 198.9496 0002499 206.8115 163.0292 15.10729017573757
2022-08-06T11:32:51.000,1099190.0633150574,11:33:55.000,65,999800.6420764101,11:34:59.000,128,1099581.2597593942,4.4086,2.0,GENERATED VIA SPACE-TRACK.ORG API,2022-08-06T18:07:45,18 SPCS,SL-14 R/B,1991-039B,EARTH,TEME,UTC,SGP4,2022-08-06T05:51:48.000384,14.79942387,0.0022182,82.5221,279.5452,149.1088,211.1435,0,U,21398,999,66031,1.338e-05,1.25e-06,0.0,7007.643,97.301,645.052,613.964,ROCKET BODY,LARGE,CIS,1991-06-04,PKMTR,,3530579,209677574,0 SL-14 R/B,1 21398U 91039B   22218.24430556  .00000125  00000-0  13380-4 0  9996,2 21398  82.5221 279.5452 0022182 149.1088 211.1435 14.79942387660312
2022-08-06T18:09:07.000,1099424.3013005415,18:11:09.000,123,705490.8206786829,18:13:11.000,244,1095742.2451459174,8.6816,2.0,GENERATED VIA SPACE-TRACK.ORG API,2022-08-06T18:07:45,18 SPCS,DELTA 2 R/B(1),1992-039B,EARTH,TEME,UTC,SGP4,2022-08-06T08:53:06.872352,15.23480267,0.0042256,20.7131,225.3219,26.5315,333.728,0,U,22015,999,67608,0.00016498,4.734e-05,0.0,6873.49,94.52,524.399,466.31,ROCKET BODY,LARGE,US,1992-07-07,AFETR,,3530579,209677606,0 DELTA 2 R/B(1),1 22015U 92039B   22218.37021843  .00004734  00000-0  16498-3 0  9995,2 22015  20.7131 225.3219 0042256  26.5315 333.7280 15.23480267676082
2022-08-06T11:21:57.000,1096320.915166562,11:23:58.000,122,655907.1367862554,11:25:59.000,242,1097249.6098931648,8.232000000000001,2.0,GENERATED VIA SPACE-TRACK.ORG API,2022-08-06T18:07:45,18 SPCS,SL-16 R/B,1994-074B,EARTH,TEME,UTC,SGP4,2022-08-06T14:32:27.211200,14.77065131,0.0007621,97.8893,270.4488,145.1055,15.9881,0,U,23343,999,49356,2.5283e-05,1.28e-06,0.0,7016.74,97.491,643.953,633.258,ROCKET BODY,LARGE,CIS,1994-11-04,TTMTR,,3530579,209680425,0 SL-16 R/B,1 23343U 94074B   22218.60587050  .00000128  00000-0  25283-4 0  9990,2 23343  97.8893 270.4488 0007621 145.1055  15.9881 14.77065131493565
2022-08-06T11:00:00.000,905713.413063089,11:00:58.000,58,809374.8179124986,11:02:44.000,164,1095544.6308288858,9.8843,2.0,GENERATED VIA SPACE-TRACK.ORG API,2022-08-06T18:07:45,18 SPCS,DELTA 2 R/B(1),1997-025B,EARTH,TEME,UTC,SGP4,2022-08-06T11:46:44.444352,13.30141467,0.0665672,26.2952,243.0822,212.2672,143.5383,0,U,24809,999,22596,3.1729e-05,1.89e-06,0.0,7524.367,108.259,1647.108,645.356,ROCKET BODY,LARGE,US,1997-05-20,AFETR,,3530579,209679719,0 DELTA 2 R/B(1),1 24809U 97025B   22218.49079218  .00000189  00000-0  31729-4 0  9995,2 24809  26.2952 243.0822 0665672 212.2672 143.5383 13.30141467225967
2022-08-06T18:28:50.000,1098232.9925212055,18:30:37.000,108,792001.851990508,18:32:23.000,213,1096779.2608538575,12.1964,2.0,GENERATED VIA SPACE-TRACK.ORG API,2022-08-06T18:07:45,18 SPCS,ARIANE 40 R/B,1998-017B,EARTH,TEME,UTC,SGP4,2022-08-06T11:50:28.539168,14.34125475,0.0002847,98.79,195.3768,337.4231,22.6827,0,U,25261,999,27363,8.028e-05,1.79e-06,0.0,7156.111,100.41,780.013,775.939,ROCKET BODY,LARGE,FR,1998-03-24,FRGUI,,3530579,209679238,0 ARIANE 40 R/B,1 25261U 98017B   22218.49338587  .00000179  00000-0  80280-4 0  9992,2 25261  98.7900 195.3768 0002847 337.4231  22.6827 14.34125475273638
2022-08-06T11:20:08.000,1095972.803793176,11:21:55.000,108,791333.9349286135,11:23:41.000,213,1095141.2897614401,399.0524,2.0,GENERATED VIA SPACE-TRACK.ORG API,2022-08-06T17:46:10,18 SPCS,ISS (ZARYA),1998-067A,EARTH,TEME,UTC,SGP4,2022-08-06T16:27:42.421824,15.5025094,0.0005364,51.6435,86.4311,90.6627,12.242,0,U,25544,999,35301,9.1679e-05,4.825e-05,0.0,6794.13,92.888,419.639,412.35,PAYLOAD,LARGE,ISS,1998-11-20,TTMTR,,3530577,209672725,0 ISS (ZARYA),1 25544U 98067A   22218.68590766  .00004825  00000-0  91679-4 0  9997,2 25544  51.6435  86.4311 0005364  90.6627  12.2420 15.50250940353011
2022-08-06T11:40:42.000,1098640.4250836368,11:42:04.000,83,886553.4023792947,11:43:26.000,164,1098081.9868795683,10.254000000000001,2.0,GENERATED VIA SPACE-TRACK.ORG API,2022-08-06T18:07:45,18 SPCS,DELTA R/B(1),1999-003B,EARTH,TEME,UTC,SGP4,2022-08-06T05:57:05.820192,11.00817272,0.219296,22.4585,240.2475,212.9981,131.2475,0,U,25619,999,86123,0.00045831,0.00014123,-4.8722e-06,8536.078,130.812,4029.87,286.015,ROCKET BODY,LARGE,US,1999-02-07,AFETR,,3530579,209681007,0 DELTA R/B(1),1 25619U 99003B   22218.24798403  .00014123 -48722-5  45831-3 0  9990,2 25619  22.4585 240.2475 2192960 212.9981 131.2475 11.00817272861238
2022-08-06T13:56:49.000,1096964.5240991462,13:58:34.000,106,552309.478955348,14:00:19.000,210,1098233.020935051,20.91,2.0,GENERATED VIA SPACE-TRACK.ORG API,2022-08-06T18:07:45,18 SPCS,ARIANE 42P R/B,1999-016B,EARTH,TEME,UTC,SGP4,2022-08-06T10:17:54.945024,4.77317748,0.5560536,4.3505,287.3682,213.4301,94.0877,0,U,25667,999,28708,0.002126,0.00033472,0.0,14900.361,301.686,16807.625,236.827,ROCKET BODY,LARGE,FR,1999-04-02,FRGUI,,3530579,209679508,0 ARIANE 42P R/B,1 25667U 99016B   22218.42910816  .00033472  00000-0  21260-2 0  9999,2 25667   4.3505 287.3682 5560536 213.4301  94.0877  4.77317748287083
2022-08-06T12:21:00.000,1097561.8605680226,12:23:13.000,134,601499.9423465206,12:25:25.000,265,1097194.7671035693,0.94,2.0,GENERATED VIA SPACE-TRACK.ORG API,2022-08-06T18:07:45,18 SPCS,PEGASUS R/B,2002-004B,EARTH,TEME,UTC,SGP4,2022-08-06T09:14:35.232000,15.10990676,0.0011466,38.0281,109.9055,315.5036,44.4806,0,U,27371,999,12575,8.9311e-05,1.406e-05,0.0,6911.314,95.302,541.104,525.255,ROCKET BODY,LARGE,US,2002-02-05,ERAS,,3530579,209679350,0 PEGASUS R/B,1 27371U 02004B   22218.38513000  .00001406  00000-0  89311-4 0  9998,2 27371  38.0281 109.9055 0011466 315.5036  44.4806 15.10990676125754
